start=new Date('2022-11-28T00:00:00.000Z').valueOf();
sats=[{"PERIOD":"95.438","FILE":"3671896","NORAD_CAT_ID":"50180","TLE_LINE1":"1 50180U 21125AA  22331.99022024 -.00001206  00000-0 -57643-4 0  9994","SITE":"AFWTR","DECAY_DATE":null,"MEAN_MOTION_DDOT":"0.0000000000000","SEMIMAJOR_AXIS":"6917.900","COUNTRY_CODE":"US","GP_ID":"218967638","RA_OF_ASC_NODE":"225.8118","CENTER_NAME":"EARTH","OBJECT_TYPE":"PAYLOAD","EPOCH":"2022-11-27T23:45:55.028736","TIME_SYSTEM":"UTC","REV_AT_EPOCH":"5270","MEAN_ELEMENT_THEORY":"SGP4","APOAPSIS":"541.640","ARG_OF_PERICENTER":"41.8921","RCS_SIZE":"LARGE","OBJECT_NAME":"STARLINK-3265","REF_FRAME":"TEME","MEAN_ANOMALY":"318.2278","EPHEMERIS_TYPE":"0","CLASSIFICATION_TYPE":"U","OBJECT_ID":"2021-125AA","ELEMENT_SET_NO":"999","PERIAPSIS":"537.890","LAUNCH_DATE":"2021-12-18","INCLINATION":"53.2164","ECCENTRICITY":"0.00027100","MEAN_MOTION":"15.08833567","BSTAR":"-0.00005764300000","TLE_LINE2":"2 50180  53.2164 225.8118 0002710  41.8921 318.2278 15.08833567 52700","MEAN_MOTION_DOT":"-0.00001206"},{"PERIOD":"95.438","FILE":"3671587","SEMIMAJOR_AXIS":"6917.882","DECAY_DATE":null,"SITE":"AFWTR","MEAN_MOTION_DDOT":"0.0000000000000","TLE_LINE1":"1 50181U 21125AB  22331.45293648 -.00001033  00000-0 -46773-4 0  9998","NORAD_CAT_ID":"50181","RA_OF_ASC_NODE":"228.2276","GP_ID":"218934509","COUNTRY_CODE":"US","REV_AT_EPOCH":"5522","APOAPSIS":"541.852","MEAN_ELEMENT_THEORY":"SGP4","EPOCH":"2022-11-27T10:52:13.711872","TIME_SYSTEM":"UTC","CENTER_NAME":"EARTH","OBJECT_TYPE":"PAYLOAD","REF_FRAME":"TEME","OBJECT_NAME":"STARLINK-3285","ARG_OF_PERICENTER":"35.8702","RCS_SIZE":"LARGE","ELEMENT_SET_NO":"999","EPHEMERIS_TYPE":"0","CLASSIFICATION_TYPE":"U","OBJECT_ID":"2021-125AB","MEAN_ANOMALY":"324.2494","PERIAPSIS":"537.641","MEAN_MOTION_DOT":"-0.00001033","TLE_LINE2":"2 50181  53.2177 228.2276 0003044  35.8702 324.2494 15.08839578 55223","BSTAR":"-0.00004677300000","ECCENTRICITY":"0.00030440","MEAN_MOTION":"15.08839578","LAUNCH_DATE":"2021-12-18","INCLINATION":"53.2177"},{"COUNTRY_CODE":"US","GP_ID":"218991342","RA_OF_ASC_NODE":"227.0701","OBJECT_TYPE":"PAYLOAD","CENTER_NAME":"EARTH","EPOCH":"2022-11-27T17:03:10.856448","TIME_SYSTEM":"UTC","MEAN_ELEMENT_THEORY":"SGP4","APOAPSIS":"542.214","REV_AT_EPOCH":"5578","PERIOD":"95.438","FILE":"3671921","NORAD_CAT_ID":"50182","TLE_LINE1":"1 50182U 21125AC  22331.71054232 -.00001080  00000-0 -49730-4 0  9990","SITE":"AFWTR","DECAY_DATE":null,"MEAN_MOTION_DDOT":"0.0000000000000","SEMIMAJOR_AXIS":"6917.906","PERIAPSIS":"537.327","INCLINATION":"53.2151","LAUNCH_DATE":"2021-12-18","MEAN_MOTION":"15.08831655","ECCENTRICITY":"0.00035320","BSTAR":"-0.00004973000000","MEAN_MOTION_DOT":"-0.00001080","TLE_LINE2":"2 50182  53.2151 227.0701 0003532  35.4569 324.6657 15.08831655 55789","RCS_SIZE":"LARGE","ARG_OF_PERICENTER":"35.4569","OBJECT_NAME":"STARLINK-3277","REF_FRAME":"TEME","MEAN_ANOMALY":"324.6657","OBJECT_ID":"2021-125AC","CLASSIFICATION_TYPE":"U","EPHEMERIS_TYPE":"0","ELEMENT_SET_NO":"999"},{"DECAY_DATE":null,"SITE":"AFWTR","MEAN_MOTION_DDOT":"0.0000000000000","SEMIMAJOR_AXIS":"6917.900","NORAD_CAT_ID":"50183","TLE_LINE1":"1 50183U 21125AD  22331.97918378 -.00001823  00000-0 -96456-4 0  9991","PERIOD":"95.438","FILE":"3671896","EPOCH":"2022-11-27T23:30:01.478592","TIME_SYSTEM":"UTC","APOAPSIS":"541.278","MEAN_ELEMENT_THEORY":"SGP4","REV_AT_EPOCH":"5270","OBJECT_TYPE":"PAYLOAD","CENTER_NAME":"EARTH","COUNTRY_CODE":"US","GP_ID":"218967788","RA_OF_ASC_NODE":"225.8655","OBJECT_ID":"2021-125AD","CLASSIFICATION_TYPE":"U","EPHEMERIS_TYPE":"0","ELEMENT_SET_NO":"999","MEAN_ANOMALY":"320.3236","OBJECT_NAME":"STARLINK-3281","REF_FRAME":"TEME","RCS_SIZE":"LARGE","ARG_OF_PERICENTER":"39.7916","BSTAR":"-0.00009645600000","TLE_LINE2":"2 50183  53.2171 225.8655 0002187  39.7916 320.3236 15.08833483 52700","MEAN_MOTION_DOT":"-0.00001823","INCLINATION":"53.2171","LAUNCH_DATE":"2021-12-18","MEAN_MOTION":"15.08833483","ECCENTRICITY":"0.00021870","PERIAPSIS":"538.252"},{"INCLINATION":"53.2168","LAUNCH_DATE":"2021-12-18","MEAN_MOTION":"15.08825621","ECCENTRICITY":"0.00037290","BSTAR":"0.00000317260000","TLE_LINE2":"2 50185  53.2168 227.0179 0003729  30.2120 329.9087 15.08825621 55751","MEAN_MOTION_DOT":"-0.00000238","PERIAPSIS":"537.210","MEAN_ANOMALY":"329.9087","OBJECT_ID":"2021-125AF","EPHEMERIS_TYPE":"0","CLASSIFICATION_TYPE":"U","ELEMENT_SET_NO":"999","RCS_SIZE":"LARGE","ARG_OF_PERICENTER":"30.2120","OBJECT_NAME":"STARLINK-3279","REF_FRAME":"TEME","OBJECT_TYPE":"PAYLOAD","CENTER_NAME":"EARTH","TIME_SYSTEM":"UTC","EPOCH":"2022-11-27T17:19:04.470528","MEAN_ELEMENT_THEORY":"SGP4","APOAPSIS":"542.369","REV_AT_EPOCH":"5575","GP_ID":"218992842","COUNTRY_CODE":"US","RA_OF_ASC_NODE":"227.0179","NORAD_CAT_ID":"50185","TLE_LINE1":"1 50185U 21125AF  22331.72157952 -.00000238  00000-0  31726-5 0  9997","MEAN_MOTION_DDOT":"0.0000000000000","DECAY_DATE":null,"SITE":"AFWTR","SEMIMAJOR_AXIS":"6917.924","FILE":"3671921","PERIOD":"95.438"},{"FILE":"3671896","PERIOD":"95.438","SITE":"AFWTR","DECAY_DATE":null,"MEAN_MOTION_DDOT":"0.0000000000000","SEMIMAJOR_AXIS":"6917.902","NORAD_CAT_ID":"50186","TLE_LINE1":"1 50186U 21125AG  22331.93410334 -.00001389  00000-0 -69171-4 0  9990","COUNTRY_CODE":"US","GP_ID":"218967785","RA_OF_ASC_NODE":"236.0607","EPOCH":"2022-11-27T22:25:06.528576","TIME_SYSTEM":"UTC","REV_AT_EPOCH":"5515","MEAN_ELEMENT_THEORY":"SGP4","APOAPSIS":"541.620","CENTER_NAME":"EARTH","OBJECT_TYPE":"PAYLOAD","OBJECT_NAME":"STARLINK-3274","REF_FRAME":"TEME","ARG_OF_PERICENTER":"34.0845","RCS_SIZE":"LARGE","EPHEMERIS_TYPE":"0","CLASSIFICATION_TYPE":"U","OBJECT_ID":"2021-125AG","ELEMENT_SET_NO":"999","MEAN_ANOMALY":"326.0318","PERIAPSIS":"537.914","BSTAR":"-0.00006917100000","TLE_LINE2":"2 50186  53.2186 236.0607 0002679  34.0845 326.0318 15.08832905 55159","MEAN_MOTION_DOT":"-0.00001389","LAUNCH_DATE":"2021-12-18","INCLINATION":"53.2186","ECCENTRICITY":"0.00026790","MEAN_MOTION":"15.08832905"},{"RA_OF_ASC_NODE":"216.8184","COUNTRY_CODE":"US","GP_ID":"218991841","MEAN_ELEMENT_THEORY":"SGP4","APOAPSIS":"541.202","REV_AT_EPOCH":"5587","EPOCH":"2022-11-27T18:18:41.346720","TIME_SYSTEM":"UTC","OBJECT_TYPE":"PAYLOAD","CENTER_NAME":"EARTH","PERIOD":"95.438","FILE":"3671921","SEMIMAJOR_AXIS":"6917.902","SITE":"AFWTR","DECAY_DATE":null,"MEAN_MOTION_DDOT":"0.0000000000000","TLE_LINE1":"1 50187U 21125AH  22331.76297855 -.00002104  00000-0 -11413-3 0  9994","NORAD_CAT_ID":"50187","PERIAPSIS":"538.333","MEAN_MOTION_DOT":"-0.00002104","TLE_LINE2":"2 50187  53.2152 216.8184 0002073  46.3488 313.7676 15.08832788 55874","BSTAR":"-0.00011413000000","MEAN_MOTION":"15.08832788","ECCENTRICITY":"0.00020730","INCLINATION":"53.2152","LAUNCH_DATE":"2021-12-18","REF_FRAME":"TEME","OBJECT_NAME":"STARLINK-3272","RCS_SIZE":"LARGE","ARG_OF_PERICENTER":"46.3488","ELEMENT_SET_NO":"999","OBJECT_ID":"2021-125AH","EPHEMERIS_TYPE":"0","CLASSIFICATION_TYPE":"U","MEAN_ANOMALY":"313.7676"},{"PERIAPSIS":"538.122","MEAN_MOTION_DOT":"-0.00000145","TLE_LINE2":"2 50188  53.2163 217.0964 0002355  42.8040 317.3135 15.08838190 55923","BSTAR":"0.00000901020000","MEAN_MOTION":"15.08838190","ECCENTRICITY":"0.00023550","INCLINATION":"53.2163","LAUNCH_DATE":"2021-12-18","REF_FRAME":"TEME","OBJECT_NAME":"STARLINK-3275","RCS_SIZE":"LARGE","ARG_OF_PERICENTER":"42.8040","ELEMENT_SET_NO":"999","OBJECT_ID":"2021-125AJ","EPHEMERIS_TYPE":"0","CLASSIFICATION_TYPE":"U","MEAN_ANOMALY":"317.3135","RA_OF_ASC_NODE":"217.0964","GP_ID":"218992093","COUNTRY_CODE":"US","APOAPSIS":"541.380","MEAN_ELEMENT_THEORY":"SGP4","REV_AT_EPOCH":"5592","TIME_SYSTEM":"UTC","EPOCH":"2022-11-27T16:48:36.214560","OBJECT_TYPE":"PAYLOAD","CENTER_NAME":"EARTH","PERIOD":"95.438","FILE":"3671921","SEMIMAJOR_AXIS":"6917.886","DECAY_DATE":null,"SITE":"AFWTR","MEAN_MOTION_DDOT":"0.0000000000000","TLE_LINE1":"1 50188U 21125AJ  22331.70041915 -.00000145  00000-0  90102-5 0  9999","NORAD_CAT_ID":"50188"},{"MEAN_MOTION":"15.08831630","ECCENTRICITY":"0.00027840","INCLINATION":"53.2182","LAUNCH_DATE":"2021-12-18","TLE_LINE2":"2 50189  53.2182 227.1032 0002784  36.5186 323.5995 15.08831630 55789","MEAN_MOTION_DOT":"-0.00000474","BSTAR":"-0.00001167900000","PERIAPSIS":"537.845","MEAN_ANOMALY":"323.5995","ELEMENT_SET_NO":"999","OBJECT_ID":"2021-125AK","CLASSIFICATION_TYPE":"U","EPHEMERIS_TYPE":"0","RCS_SIZE":"LARGE","ARG_OF_PERICENTER":"36.5186","REF_FRAME":"TEME","OBJECT_NAME":"STARLINK-3276","OBJECT_TYPE":"PAYLOAD","CENTER_NAME":"EARTH","MEAN_ELEMENT_THEORY":"SGP4","APOAPSIS":"541.697","REV_AT_EPOCH":"5578","EPOCH":"2022-11-27T16:52:34.901472","TIME_SYSTEM":"UTC","RA_OF_ASC_NODE":"227.1032","GP_ID":"218992343","COUNTRY_CODE":"US","TLE_LINE1":"1 50189U 21125AK  22331.70318173 -.00000474  00000-0 -11679-4 0  9990","NORAD_CAT_ID":"50189","SEMIMAJOR_AXIS":"6917.906","MEAN_MOTION_DDOT":"0.0000000000000","DECAY_DATE":null,"SITE":"AFWTR","PERIOD":"95.438","FILE":"3671921"},{"RCS_SIZE":"LARGE","ARG_OF_PERICENTER":"35.8512","REF_FRAME":"TEME","OBJECT_NAME":"STARLINK-3268","MEAN_ANOMALY":"324.2696","ELEMENT_SET_NO":"999","OBJECT_ID":"2021-125AL","EPHEMERIS_TYPE":"0","CLASSIFICATION_TYPE":"U","PERIAPSIS":"537.515","MEAN_MOTION":"15.08837623","ECCENTRICITY":"0.00032340","INCLINATION":"53.2150","LAUNCH_DATE":"2021-12-18","MEAN_MOTION_DOT":"-0.00002757","TLE_LINE2":"2 50190  53.2150 215.9897 0003234  35.8512 324.2696 15.08837623 55432","BSTAR":"-0.00015512000000","PERIOD":"95.438","FILE":"3671896","TLE_LINE1":"1 50190U 21125AL  22331.95066495 -.00002757  00000-0 -15512-3 0  9991","NORAD_CAT_ID":"50190","SEMIMAJOR_AXIS":"6917.888","SITE":"AFWTR","DECAY_DATE":null,"MEAN_MOTION_DDOT":"0.0000000000000","RA_OF_ASC_NODE":"215.9897","GP_ID":"218967792","COUNTRY_CODE":"US","OBJECT_TYPE":"PAYLOAD","CENTER_NAME":"EARTH","MEAN_ELEMENT_THEORY":"SGP4","APOAPSIS":"541.990","REV_AT_EPOCH":"5543","EPOCH":"2022-11-27T22:48:57.451680","TIME_SYSTEM":"UTC"}];
